STARLINK-1265_new
1 15406C 20019AY  21326.15660212 -.00015664  00000-0 -10498-2 0  3260
2 15406  53.0540 338.0327 0001498  55.6162  56.4602 15.06404441    14
STARLINK-1265_old
1 25406C 20019AY  21325.12621030 -.00001280  00000-0 -85743-4 0  3256
2 25406  53.0541 342.6585 0001576  57.7823 223.3150 15.06406702    11
